STARLINK-31684          
1 59492U 24071J   26067.81379809 -.00003934  00000+0 -13350-3 0  9994
2 59492  42.9980 352.3031 0000637 257.0512 103.0268 15.27581574107988
2025-313BD              
1 67299U 25313BD  26068.62968741  .00081010  00000+0  27634-2 0  9995
2 67299  97.3970 145.2850 0007287 333.4514  26.6352 15.30002360 10838
